CSS (TIANHE)            
1 48274U 21035A   23252.71319603  .00032357  00000+0  36114-3 0  9997
2 48274  41.4751   1.8310 0010170 335.0211  25.0135 15.62036492135043
